GLOBALSTAR M070         
1 32264U 07048B   23255.48355007 -.00000048  00000+0  31143-3 0  9992
2 32264  51.9744 289.4174 0000769 120.5539  26.3258 12.62278011732379
GLOBALSTAR M066         
1 32265U 07048C   23255.96572918 -.00000049  00000+0  30739-3 0  9999
2 32265  51.9669 150.0258 0000923   2.7603  10.4490 12.62264093735647
GLOBALSTAR M079         
1 37188U 10054A   23255.66795870 -.00000073  00000+0  17356-3 0  9997
2 37188  52.0040 298.7661 0000287  80.9696  68.1844 12.62267661595182
GLOBALSTAR M074         
1 37189U 10054B   23255.61927764 -.00000070  00000+0  18832-3 0  9999
2 37189  52.0016 298.3366 0000452 103.4368  64.4902 12.62269752595788
GLOBALSTAR M076         
1 37190U 10054C   23255.56304179 -.00000058  00000+0  25681-3 0  9990
2 37190  52.0030 298.6189 0000781  53.9837  99.1649 12.62261062595494
GLOBALSTAR M077         
1 37191U 10054D   23255.71249016 -.00000100  00000+0  23675-4 0  9996
2 37191  52.0052 254.8348 0000376  89.9078  81.2272 12.62260670595887
GLOBALSTAR M067 [+]     
1 32263U 07048A   23255.78829771 -.00000028  00000+0  51179-3 0  9997
2 32263  51.9715 118.4985 0001613  56.1548  22.3723 12.40631464729628
GLOBALSTAR M068 [-]     
1 32266U 07048D   23255.90195111 -.00000049  00000+0  30312-3 0  9997
2 32266  51.9880 103.1036 0001185 115.9055 348.9906 12.62766299736282
